CTC1_L_00117001-01
1 10000U 26155XQ  26075.70031250  .00000000  00000+0  00000-0 0  9997
2 10000  95.0000   0.0000 0000000   0.0000   0.0000 14.33516687    12
CTC1_L_00117001-02
1 10001U 25898WJ  26075.70031250  .00000000  00000+0  00000-0 0  9991
2 10001  95.0000   0.0000 0000000   0.0000  90.0000 14.33516687    12
CTC1_L_00117001-03
1 10002U 22046TG  26075.70031250  .00000000  00000+0  00000-0 0  9994
2 10002  95.0000   0.0000 0000000   0.0000 180.0000 14.33516687    13
CTC1_L_00117001-04
1 10003U 25028UH  26075.70031250  .00000000  00000+0  00000-0 0  9998
2 10003  95.0000   0.0000 0000000   0.0000 270.0000 14.33516687    14
CTC1_L_00117002-01
1 10004U 22079GF  26075.70031250  .00000000  00000+0  00000-0 0  9992
2 10004  95.0000  12.0000 0000000   0.0000  12.0000 14.33516687    12
CTC1_L_00117002-02
1 10005U 25516OO  26075.70031250  .00000000  00000+0  00000-0 0  9992
2 10005  95.0000  12.0000 0000000   0.0000 102.0000 14.33516687    13
CTC1_L_00117002-03
1 10006U 26909ZY  26075.70031250  .00000000  00000+0  00000-0 0  9990
2 10006  95.0000  12.0000 0000000   0.0000 192.0000 14.33516687    13
CTC1_L_00117002-04
1 10007U 26072TZ  26075.70031250  .00000000  00000+0  00000-0 0  9992
2 10007  95.0000  12.0000 0000000   0.0000 282.0000 14.33516687    14
CTC1_L_00117003-01
1 10008U 25865LL  26075.70031250  .00000000  00000+0  00000-0 0  9992
2 10008  95.0000  24.0000 0000000   0.0000  24.0000 14.33516687    12
CTC1_L_00117003-02
1 10009U 25768SW  26075.70031250  .00000000  00000+0  00000-0 0  9995
2 10009  95.0000  24.0000 0000000   0.0000 114.0000 14.33516687    13
CTC1_L_00117003-03
1 10010U 26669SL  26075.70031250  .00000000  00000+0  00000-0 0  9998
2 10010  95.0000  24.0000 0000000   0.0000 204.0000 14.33516687    15
CTC1_L_00117003-04
1 10011U 25380A   26075.70031250  .00000000  00000+0  00000-0 0  9998
2 10011  95.0000  24.0000 0000000   0.0000 294.0000 14.33516687    15
CTC1_L_00117004-01
1 10012U 26203R   26075.70031250  .00000000  00000+0  00000-0 0  9994
2 10012  95.0000  36.0000 0000000   0.0000  36.0000 14.33516687    13
CTC1_L_00117004-02
1 10013U 25391WQ  26075.70031250  .00000000  00000+0  00000-0 0  9992
2 10013  95.0000  36.0000 0000000   0.0000 126.0000 14.33516687    14
CTC1_L_00117004-03
1 10014U 26766NK  26075.70031250  .00000000  00000+0  00000-0 0  9990
2 10014  95.0000  36.0000 0000000   0.0000 216.0000 14.33516687    15
CTC1_L_00117004-04
1 10015U 26051KK  26075.70031250  .00000000  00000+0  00000-0 0  9998
2 10015  95.0000  36.0000 0000000   0.0000 306.0000 14.33516687    16
CTC1_L_00117005-01
1 10016U 22506VO  26075.70031250  .00000000  00000+0  00000-0 0  9990
2 10016  95.0000  48.0000 0000000   0.0000  48.0000 14.33516687    13
CTC1_L_00117005-02
1 10017U 22630EY  26075.70031250  .00000000  00000+0  00000-0 0  9999
2 10017  95.0000  48.0000 0000000   0.0000 138.0000 14.33516687    14
CTC1_L_00117005-03
1 10018U 23111ZC  26075.70031250  .00000000  00000+0  00000-0 0  9995
2 10018  95.0000  48.0000 0000000   0.0000 228.0000 14.33516687    15
CTC1_L_00117005-04
1 10019U 26600RV  26075.70031250  .00000000  00000+0  00000-0 0  9992
2 10019  95.0000  48.0000 0000000   0.0000 318.0000 14.33516687    16
CTC1_L_00117006-01
1 10020U 22227GT  26075.70031250  .00000000  00000+0  00000-0 0  9995
2 10020  95.0000  60.0000 0000000   0.0000  60.0000 14.33516687    16
CTC1_L_00117006-02
1 10021U 26264UA  26075.70031250  .00000000  00000+0  00000-0 0  9991
2 10021  95.0000  60.0000 0000000   0.0000 150.0000 14.33516687    17
CTC1_L_00117006-03
1 10022U 24247RT  26075.70031250  .00000000  00000+0  00000-0 0  9991
2 10022  95.0000  60.0000 0000000   0.0000 240.0000 14.33516687    18
CTC1_L_00117006-04
1 10023U 26570GY  26075.70031250  .00000000  00000+0  00000-0 0  9993
2 10023  95.0000  60.0000 0000000   0.0000 330.0000 14.33516687    19
CTC1_L_00117007-01
1 10024U 22472EH  26075.70031250  .00000000  00000+0  00000-0 0  9991
2 10024  95.0000  72.0000 0000000   0.0000  72.0000 14.33516687    16
CTC1_L_00117007-02
1 10025U 24478TO  26075.70031250  .00000000  00000+0  00000-0 0  9990
2 10025  95.0000  72.0000 0000000   0.0000 162.0000 14.33516687    17
CTC1_L_00117007-03
1 10026U 24733SD  26075.70031250  .00000000  00000+0  00000-0 0  9995
2 10026  95.0000  72.0000 0000000   0.0000 252.0000 14.33516687    18
CTC1_L_00117007-04
1 10027U 23166DO  26075.70031250  .00000000  00000+0  00000-0 0  9995
2 10027  95.0000  72.0000 0000000   0.0000 342.0000 14.33516687    19
CTC1_L_00117008-01
1 10028U 25879SG  26075.70031250  .00000000  00000+0  00000-0 0  9999
2 10028  95.0000  84.0000 0000000   0.0000  84.0000 14.33516687    16
CTC1_L_00117008-02
1 10029U 23519OJ  26075.70031250  .00000000  00000+0  00000-0 0  9999
2 10029  95.0000  84.0000 0000000   0.0000 174.0000 14.33516687    17
CTC1_L_00117008-03
1 10030U 22708CN  26075.70031250  .00000000  00000+0  00000-0 0  9990
2 10030  95.0000  84.0000 0000000   0.0000 264.0000 14.33516687    19
CTC1_L_00117008-04
1 10031U 23725YX  26075.70031250  .00000000  00000+0  00000-0 0  9991
2 10031  95.0000  84.0000 0000000   0.0000 354.0000 14.33516687    10
CTC1_L_00117009-01
1 10032U 22554AB  26075.70031250  .00000000  00000+0  00000-0 0  9991
2 10032  95.0000  96.0000 0000000   0.0000  96.0000 14.33516687    17
CTC1_L_00117009-02
1 10033U 22744NL  26075.70031250  .00000000  00000+0  00000-0 0  9993
2 10033  95.0000  96.0000 0000000   0.0000 186.0000 14.33516687    18
CTC1_L_00117009-03
1 10034U 23041PS  26075.70031250  .00000000  00000+0  00000-0 0  9995
2 10034  95.0000  96.0000 0000000   0.0000 276.0000 14.33516687    19
CTC1_L_00117009-04
1 10035U 22688K   26075.70031250  .00000000  00000+0  00000-0 0  9992
2 10035  95.0000  96.0000 0000000   0.0000   6.0000 14.33516687    11
CTC1_L_00117010-01
1 10036U 24146OL  26075.70031250  .00000000  00000+0  00000-0 0  9994
2 10036  95.0000 108.0000 0000000   0.0000 108.0000 14.33516687    19
CTC1_L_00117010-02
1 10037U 26671XW  26075.70031250  .00000000  00000+0  00000-0 0  9990
2 10037  95.0000 108.0000 0000000   0.0000 198.0000 14.33516687    19
CTC1_L_00117010-03
1 10038U 25310NX  26075.70031250  .00000000  00000+0  00000-0 0  9990
2 10038  95.0000 108.0000 0000000   0.0000 288.0000 14.33516687    10
CTC1_L_00117010-04
1 10039U 24207CS  26075.70031250  .00000000  00000+0  00000-0 0  9995
2 10039  95.0000 108.0000 0000000   0.0000  18.0000 14.33516687    12
CTC1_L_00117011-01
1 10040U 24526XD  26075.70031250  .00000000  00000+0  00000-0 0  9991
2 10040  95.0000 120.0000 0000000   0.0000 120.0000 14.33516687    12
CTC1_L_00117011-02
1 10041U 26701OV  26075.70031250  .00000000  00000+0  00000-0 0  9999
2 10041  95.0000 120.0000 0000000   0.0000 210.0000 14.33516687    13
CTC1_L_00117011-03
1 10042U 26483IG  26075.70031250  .00000000  00000+0  00000-0 0  9997
2 10042  95.0000 120.0000 0000000   0.0000 300.0000 14.33516687    14
CTC1_L_00117011-04
1 10043U 22838RF  26075.70031250  .00000000  00000+0  00000-0 0  9998
2 10043  95.0000 120.0000 0000000   0.0000  30.0000 14.33516687    15
CTC1_L_00117012-01
1 10044U 23998EK  26075.70031250  .00000000  00000+0  00000-0 0  9997
2 10044  95.0000 132.0000 0000000   0.0000 132.0000 14.33516687    12
CTC1_L_00117012-02
1 10045U 24402DH  26075.70031250  .00000000  00000+0  00000-0 0  9999
2 10045  95.0000 132.0000 0000000   0.0000 222.0000 14.33516687    13
CTC1_L_00117012-03
1 10046U 24826WA  26075.70031250  .00000000  00000+0  00000-0 0  9990
2 10046  95.0000 132.0000 0000000   0.0000 312.0000 14.33516687    14
CTC1_L_00117012-04
1 10047U 22276MZ  26075.70031250  .00000000  00000+0  00000-0 0  9998
2 10047  95.0000 132.0000 0000000   0.0000  42.0000 14.33516687    15
CTC1_L_00117013-01
1 10048U 25618LO  26075.70031250  .00000000  00000+0  00000-0 0  9992
2 10048  95.0000 144.0000 0000000   0.0000 144.0000 14.33516687    12
CTC1_L_00117013-02
1 10049U 24188CV  26075.70031250  .00000000  00000+0  00000-0 0  9994
2 10049  95.0000 144.0000 0000000   0.0000 234.0000 14.33516687    13
CTC1_L_00117013-03
1 10050U 24443VQ  26075.70031250  .00000000  00000+0  00000-0 0  9990
2 10050  95.0000 144.0000 0000000   0.0000 324.0000 14.33516687    15
CTC1_L_00117013-04
1 10051U 23027KW  26075.70031250  .00000000  00000+0  00000-0 0  9998
2 10051  95.0000 144.0000 0000000   0.0000  54.0000 14.33516687    16
CTC1_L_00117014-01
1 10052U 22607G   26075.70031250  .00000000  00000+0  00000-0 0  9992
2 10052  95.0000 156.0000 0000000   0.0000 156.0000 14.33516687    13
CTC1_L_00117014-02
1 10053U 25212HX  26075.70031250  .00000000  00000+0  00000-0 0  9998
2 10053  95.0000 156.0000 0000000   0.0000 246.0000 14.33516687    14
CTC1_L_00117014-03
1 10054U 25409GZ  26075.70031250  .00000000  00000+0  00000-0 0  9997
2 10054  95.0000 156.0000 0000000   0.0000 336.0000 14.33516687    15
CTC1_L_00117014-04
1 10055U 26807JP  26075.70031250  .00000000  00000+0  00000-0 0  9991
2 10055  95.0000 156.0000 0000000   0.0000  66.0000 14.33516687    16
CTC1_L_00117015-01
1 10056U 26317CK  26075.70031250  .00000000  00000+0  00000-0 0  9998
2 10056  95.0000 168.0000 0000000   0.0000 168.0000 14.33516687    13
CTC1_L_00117015-02
1 10057U 26129ND  26075.70031250  .00000000  00000+0  00000-0 0  9990
2 10057  95.0000 168.0000 0000000   0.0000 258.0000 14.33516687    14
CTC1_L_00117015-03
1 10058U 24162IG  26075.70031250  .00000000  00000+0  00000-0 0  9996
2 10058  95.0000 168.0000 0000000   0.0000 348.0000 14.33516687    15
CTC1_L_00117015-04
1 10059U 23128MH  26075.70031250  .00000000  00000+0  00000-0 0  9998
2 10059  95.0000 168.0000 0000000   0.0000  78.0000 14.33516687    16
CTC1_L_00117016-01
1 10060U 25650ME  26075.70031250  .00000000  00000+0  00000-0 0  9992
2 10060  95.0000 180.0000 0000000   0.0000 180.0000 14.33516687    16
CTC1_L_00117016-02
1 10061U 22818FC  26075.70031250  .00000000  00000+0  00000-0 0  9996
2 10061  95.0000 180.0000 0000000   0.0000 270.0000 14.33516687    17
